ONEWEB-0520             
1 54138U 22138AB  25154.57658453  .00000106  00000+0  23363-3 0  9993
2 54138  87.9225  20.2172 0001682  94.8070 265.3254 13.19724554126888
ONEWEB-0521             
1 54139U 22138AC  25154.91302524  .00000086  00000+0  18331-3 0  9993
2 54139  87.9225  20.1380 0001831  76.0882 284.0454 13.19726084127777
ONEWEB-0522             
1 54140U 22138AD  25155.11994821  .00000021  00000+0  19855-4 0  9997
2 54140  87.9223  20.0980 0001867  87.3904 272.7443 13.19726346127819
ONEWEB-0523             
1 54141U 22138AE  25154.54955750  .00000018  00000+0  12545-4 0  9997
2 54141  87.9262 349.8508 0002535  74.8441 285.2973 13.20771354129327
ONEWEB-0524             
1 54142U 22138AF  25155.06880723 -.00000001  00000+0 -34025-4 0  9994
2 54142  87.9262 349.7495 0002767  94.6111 265.5338 13.20771021130265
ONEWEB-0525             
1 54143U 22138AG  25154.60818200 -.00000028  00000+0 -10333-3 0  9999
2 54143  87.9226  20.2183 0001651  93.0258 267.1064 13.19726113126895
ONEWEB-0526             
1 54144U 22138AH  25155.17207212  .00000015  00000+0  60819-5 0  9998
2 54144  87.9227  20.0951 0001823  86.9612 273.1729 13.19725528127811
ONEWEB-0529             
1 54145U 22138AJ  25154.56869899  .00000065  00000+0  13126-3 0  9998
2 54145  87.9234  20.2561 0001731  91.4083 268.7248 13.19725434126888
